STARLINK-5905           
1 55986U 23042A   26187.15291255  .00000033  00000+0  10728-4 0  9995
2 55986  43.0021 110.8523 0000652 240.0471 120.0316 15.27563998181802
STARLINK-30902          
1 58421U 23180V   26186.82430648 -.00007601  00000+0 -26723-3 0  9990
2 58421  43.0014 105.3459 0001166 265.2978  94.7740 15.27547738145587
STARLINK-31398          
1 59415U 24064T   26186.95334463 -.00003487  00000+0 -11734-3 0  9992
2 59415  43.0034 108.1961 0002028 295.5221  64.5421 15.27554717127314
STARLINK-35978          
1 66601U 25270P   26187.15076500  .00033504  00000+0  12200-2 0  9994
2 66601  42.9984 107.1209 0000803 224.2161 135.8626 15.27621335 35662
STARLINK-35583          
1 66611U 25270Z   26187.14820823  .00015778  00000+0  58249-3 0  9996
2 66611  43.0025 107.0960 0002191 256.2869 103.7739 15.27533172 35936
STARLINK-35988          
1 66615U 25270AD  26187.14693043  .00027208  00000+0  99647-3 0  9990
2 66615  43.0001 107.0873 0001322 257.4087 102.6616 15.27518267 35667
