{
  "schema": "int-telemetry-real-tle-snapshot/v1",
  "source": "celestrak",
  "group": "STARLINK",
  "format": "celestrak-gp-json",
  "source_url": "https://celestrak.org/NORAD/elements/gp.php?NAME=STARLINK&FORMAT=JSON",
  "downloaded_at": "2026-07-07T07:29:27.338Z",
  "generated_at": "2026-07-07T07:29:37.186Z",
  "fingerprint": "4a165085",
  "shell_id": "starlink-real-43deg-490km",
  "catalog_count": 10705,
  "shell_count": 3263,
  "selected_count": 348,
  "mean_altitude_km": 490.18,
  "mean_inclination_deg": 43.0022,
  "mean_mean_motion_rev_per_day": 15.27582862,
  "layout": {
    "planes": 6,
    "satellites_per_plane": 58,
    "selection_strategy": "target-shell-raan-clusters-even-slot-sampling",
    "raan_cluster_threshold_deg": 3,
    "target_inclination_deg": 43,
    "target_altitude_km": 490,
    "selected_shell_key": "43.0deg-500km",
    "target_shell_distance": 0.46
  },
  "satellites": [
    {
      "satellite_id": "P02-S15",
      "norad_id": 55986,
      "satellite_name": "STARLINK-5905",
      "cospar_id": "2023-042A",
      "shell_id": "starlink-real-43deg-490km",
      "plane_id": 1,
      "slot_id": 14,
      "epoch": "2026-07-06T03:40:11.644320",
      "inclination": 43.0021,
      "raan": 110.85230000000001,
      "eccentricity": 0.00006526,
      "argument_of_perigee": 240.0471,
      "mean_anomaly": 120.03160000000003,
      "mean_motion": 15.27563998,
      "bstar": 0.000010727505,
      "status": "active",
      "raw_omm": {
        "OBJECT_NAME": "STARLINK-5905",
        "OBJECT_ID": "2023-042A",
        "EPOCH": "2026-07-06T03:40:11.644320",
        "MEAN_MOTION": 15.27563998,
        "ECCENTRICITY": 0.00006526,
        "INCLINATION": 43.0021,
        "RA_OF_ASC_NODE": 110.8523,
        "ARG_OF_PERICENTER": 240.0471,
        "MEAN_ANOMALY": 120.0316,
        "EPHEMERIS_TYPE": 0,
        "CLASSIFICATION_TYPE": "U",
        "NORAD_CAT_ID": 55986,
        "ELEMENT_SET_NO": 999,
        "REV_AT_EPOCH": 18180,
        "BSTAR": 0.000010727505,
        "MEAN_MOTION_DOT": 3.3e-7,
        "MEAN_MOTION_DDOT": 0
      },
      "source": "celestrak",
      "source_url": "https://celestrak.org/NORAD/elements/gp.php?NAME=STARLINK&FORMAT=JSON",
      "catalog_fingerprint": "4a165085"
    },
    {
      "satellite_id": "P02-S16",
      "norad_id": 58421,
      "satellite_name": "STARLINK-30902",
      "cospar_id": "2023-180V",
      "shell_id": "starlink-real-43deg-490km",
      "plane_id": 1,
      "slot_id": 15,
      "epoch": "2026-07-05T19:47:00.079872",
      "inclination": 43.0014,
      "raan": 105.34590000000003,
      "eccentricity": 0.00011662,
      "argument_of_perigee": 265.29780000000005,
      "mean_anomaly": 94.774,
      "mean_motion": 15.27547738,
      "bstar": -0.00026723465,
      "status": "active",
      "raw_omm": {
        "OBJECT_NAME": "STARLINK-30902",
        "OBJECT_ID": "2023-180V",
        "EPOCH": "2026-07-05T19:47:00.079872",
        "MEAN_MOTION": 15.27547738,
        "ECCENTRICITY": 0.00011662,
        "INCLINATION": 43.0014,
        "RA_OF_ASC_NODE": 105.3459,
        "ARG_OF_PERICENTER": 265.2978,
        "MEAN_ANOMALY": 94.774,
        "EPHEMERIS_TYPE": 0,
        "CLASSIFICATION_TYPE": "U",
        "NORAD_CAT_ID": 58421,
        "ELEMENT_SET_NO": 999,
        "REV_AT_EPOCH": 14558,
        "BSTAR": -0.00026723465,
        "MEAN_MOTION_DOT": -0.00007601,
        "MEAN_MOTION_DDOT": 0
      },
      "source": "celestrak",
      "source_url": "https://celestrak.org/NORAD/elements/gp.php?NAME=STARLINK&FORMAT=JSON",
      "catalog_fingerprint": "4a165085"
    },
    {
      "satellite_id": "P02-S17",
      "norad_id": 66601,
      "satellite_name": "STARLINK-35978",
      "cospar_id": "2025-270P",
      "shell_id": "starlink-real-43deg-490km",
      "plane_id": 1,
      "slot_id": 16,
      "epoch": "2026-07-06T03:37:06.096000",
      "inclination": 42.9984,
      "raan": 107.1209,
      "eccentricity": 0.0000803,
      "argument_of_perigee": 224.21609999999998,
      "mean_anomaly": 135.8626,
      "mean_motion": 15.27621335,
      "bstar": 0.00122,
      "status": "active",
      "raw_omm": {
        "OBJECT_NAME": "STARLINK-35978",
        "OBJECT_ID": "2025-270P",
        "EPOCH": "2026-07-06T03:37:06.096000",
        "MEAN_MOTION": 15.27621335,
        "ECCENTRICITY": 0.0000803,
        "INCLINATION": 42.9984,
        "RA_OF_ASC_NODE": 107.1209,
        "ARG_OF_PERICENTER": 224.2161,
        "MEAN_ANOMALY": 135.8626,
        "EPHEMERIS_TYPE": 0,
        "CLASSIFICATION_TYPE": "U",
        "NORAD_CAT_ID": 66601,
        "ELEMENT_SET_NO": 999,
        "REV_AT_EPOCH": 3566,
        "BSTAR": 0.00122,
        "MEAN_MOTION_DOT": 0.00033504,
        "MEAN_MOTION_DDOT": 0
      },
      "source": "celestrak",
      "source_url": "https://celestrak.org/NORAD/elements/gp.php?NAME=STARLINK&FORMAT=JSON",
      "catalog_fingerprint": "4a165085"
    },
    {
      "satellite_id": "P02-S18",
      "norad_id": 59415,
      "satellite_name": "STARLINK-31398",
      "cospar_id": "2024-064T",
      "shell_id": "starlink-real-43deg-490km",
      "plane_id": 1,
      "slot_id": 17,
      "epoch": "2026-07-05T22:52:48.976032",
      "inclination": 43.0034,
      "raan": 108.1961,
      "eccentricity": 0.00020284,
      "argument_of_perigee": 295.5221,
      "mean_anomaly": 64.5421,
      "mean_motion": 15.27554717,
      "bstar": -0.00011733637,
      "status": "active",
      "raw_omm": {
        "OBJECT_NAME": "STARLINK-31398",
        "OBJECT_ID": "2024-064T",
        "EPOCH": "2026-07-05T22:52:48.976032",
        "MEAN_MOTION": 15.27554717,
        "ECCENTRICITY": 0.00020284,
        "INCLINATION": 43.0034,
        "RA_OF_ASC_NODE": 108.1961,
        "ARG_OF_PERICENTER": 295.5221,
        "MEAN_ANOMALY": 64.5421,
        "EPHEMERIS_TYPE": 0,
        "CLASSIFICATION_TYPE": "U",
        "NORAD_CAT_ID": 59415,
        "ELEMENT_SET_NO": 999,
        "REV_AT_EPOCH": 12731,
        "BSTAR": -0.00011733637,
        "MEAN_MOTION_DOT": -0.00003487,
        "MEAN_MOTION_DDOT": 0
      },
      "source": "celestrak",
      "source_url": "https://celestrak.org/NORAD/elements/gp.php?NAME=STARLINK&FORMAT=JSON",
      "catalog_fingerprint": "4a165085"
    },
    {
      "satellite_id": "P02-S19",
      "norad_id": 66611,
      "satellite_name": "STARLINK-35583",
      "cospar_id": "2025-270Z",
      "shell_id": "starlink-real-43deg-490km",
      "plane_id": 1,
      "slot_id": 18,
      "epoch": "2026-07-06T03:33:25.191072",
      "inclination": 43.0025,
      "raan": 107.096,
      "eccentricity": 0.0002191,
      "argument_of_perigee": 256.28690000000006,
      "mean_anomaly": 103.77390000000003,
      "mean_motion": 15.27533172,
      "bstar": 0.00058249,
      "status": "active",
      "raw_omm": {
        "OBJECT_NAME": "STARLINK-35583",
        "OBJECT_ID": "2025-270Z",
        "EPOCH": "2026-07-06T03:33:25.191072",
        "MEAN_MOTION": 15.27533172,
        "ECCENTRICITY": 0.0002191,
        "INCLINATION": 43.0025,
        "RA_OF_ASC_NODE": 107.096,
        "ARG_OF_PERICENTER": 256.2869,
        "MEAN_ANOMALY": 103.7739,
        "EPHEMERIS_TYPE": 0,
        "CLASSIFICATION_TYPE": "U",
        "NORAD_CAT_ID": 66611,
        "ELEMENT_SET_NO": 999,
        "REV_AT_EPOCH": 3593,
        "BSTAR": 0.00058249,
        "MEAN_MOTION_DOT": 0.00015778,
        "MEAN_MOTION_DDOT": 0
      },
      "source": "celestrak",
      "source_url": "https://celestrak.org/NORAD/elements/gp.php?NAME=STARLINK&FORMAT=JSON",
      "catalog_fingerprint": "4a165085"
    },
    {
      "satellite_id": "P02-S20",
      "norad_id": 66615,
      "satellite_name": "STARLINK-35988",
      "cospar_id": "2025-270AD",
      "shell_id": "starlink-real-43deg-490km",
      "plane_id": 1,
      "slot_id": 19,
      "epoch": "2026-07-06T03:31:34.789152",
      "inclination": 43.0001,
      "raan": 107.08730000000003,
      "eccentricity": 0.0001322,
      "argument_of_perigee": 257.40869999999995,
      "mean_anomaly": 102.66160000000002,
      "mean_motion": 15.27518267,
      "bstar": 0.00099647,
      "status": "active",
      "raw_omm": {
        "OBJECT_NAME": "STARLINK-35988",
        "OBJECT_ID": "2025-270AD",
        "EPOCH": "2026-07-06T03:31:34.789152",
        "MEAN_MOTION": 15.27518267,
        "ECCENTRICITY": 0.0001322,
        "INCLINATION": 43.0001,
        "RA_OF_ASC_NODE": 107.0873,
        "ARG_OF_PERICENTER": 257.4087,
        "MEAN_ANOMALY": 102.6616,
        "EPHEMERIS_TYPE": 0,
        "CLASSIFICATION_TYPE": "U",
        "NORAD_CAT_ID": 66615,
        "ELEMENT_SET_NO": 999,
        "REV_AT_EPOCH": 3566,
        "BSTAR": 0.00099647,
        "MEAN_MOTION_DOT": 0.00027208,
        "MEAN_MOTION_DDOT": 0
      },
      "source": "celestrak",
      "source_url": "https://celestrak.org/NORAD/elements/gp.php?NAME=STARLINK&FORMAT=JSON",
      "catalog_fingerprint": "4a165085"
    }
  ]
}